GAOFEN-5 01             
1 43461U 18043A   26066.19189924  .00000604  00000+0  13458-3 0  9990
2 43461  98.4464  35.7035 0002749  56.9312 303.2151 14.60520125416806
GAOFEN-6                
1 43484U 18048A   26066.22103185  .00001211  00000+0  18032-3 0  9997
2 43484  97.7876 132.5888 0013051 142.1802 218.0328 14.76591877418341
GAOFEN-11 01            
1 43585U 18063A   26066.22517182  .00020601  00000+0  34156-3 0  9991
2 43585  97.1418 133.5593 0003974  12.2448 347.8901 15.52160701424516
ICESAT-2                
1 43613U 18070A   26066.13879231  .00003671  00000+0  13312-3 0  9996
2 43613  91.9987 263.4823 0003490 128.1417 232.0147 15.28304785416878
HYSIS                   
1 43719U 18096A   26066.16476634  .00001451  00000+0  20519-3 0  9995
2 43719  97.9945 133.6650 0001763 101.1233 259.0176 14.78650625392346
KAZSTSAT                
1 43783U 18099AB  26066.08339163  .00001242  00000+0  10537-3 0  9992
2 43783  97.4402 102.5897 0006853  19.1271 341.0209 14.99612787396009
SAUDISAT 5A             
1 43831U 18102A   26066.16816999  .00007421  00000+0  28316-3 0  9996
2 43831  97.3189 129.7346 0011226 130.5002 229.7217 15.26891657400108
SAUDISAT 5B             
1 43833U 18102C   26066.20598483  .00008800  00000+0  33201-3 0  9999
2 43833  97.3286 132.6594 0011917 132.7111 227.5133 15.27204502400222
GAOFEN-10R              
1 44622U 19066A   26066.20232404  .00002384  00000+0  29888-3 0  9991
2 44622  98.0398  19.1145 0008099 112.9129 247.2940 14.83143550347263
CARTOSAT-3              
1 44804U 19081A   26066.19998025  .00004442  00000+0  21419-3 0  9995
2 44804  97.4425 129.6449 0012868 145.5641 214.6430 15.19146691347983
GAOFEN-12 01            
1 44819U 19082A   26066.22168203  .00000617  00000+0  87506-4 0  9993
2 44819  97.8143  75.2848 0001895  59.7597 300.3802 14.80361278339000
CSG-1                   
1 44873U 19092A   26066.17792839  .00000840  00000+0  11211-3 0  9993
2 44873  97.8865 251.2521 0001406  85.9021 274.2352 14.82144396336363
NEMO-HD                 
1 46277U 20061F   26066.15471253  .00012478  00000+0  29039-3 0  9990
2 46277  97.2044 129.2316 0002470  81.3765 278.7762 15.42429804306244
SENTINEL-6A             
1 46984U 20086A   26066.11834497 -.00000041  00000+0  88649-4 0  9998
2 46984  66.0447 347.0522 0007809 270.8701  89.1420 12.80929628247253
GAOFEN-12 02            
1 48079U 21026A   26066.22190192  .00000652  00000+0  92764-4 0  9999
2 48079  97.9916  64.8349 0004375 188.2138 171.9003 14.80199599266678
PLEIADES NEO 3          
1 48268U 21034A   26066.21159211 -.00001930  00000+0 -23878-3 0  9995
2 48268  97.8935 142.4415 0001301  90.7689 269.3673 14.81669740262558
PLEIADES NEO 4          
1 49070U 21073E   26066.17781289  .00000306  00000+0  45438-4 0  9992
2 49070  97.8932 142.4043 0001334  92.0423 268.0943 14.81674390246264
