[{"OBJECT_NAME":"GAOFEN-5 01","OBJECT_ID":"2018-043A","EPOCH":"2026-03-07T04:36:20.094336","MEAN_MOTION":14.60520125,"ECCENTRICITY":0.0002749,"INCLINATION":98.4464,"RA_OF_ASC_NODE":35.7035,"ARG_OF_PERICENTER":56.9312,"MEAN_ANOMALY":303.2151,"EPHEMERIS_TYPE":0,"CLASSIFICATION_TYPE":"U","NORAD_CAT_ID":43461,"ELEMENT_SET_NO":999,"REV_AT_EPOCH":41680,"BSTAR":0.00013458,"MEAN_MOTION_DOT":6.04e-6,"MEAN_MOTION_DDOT":0},{"OBJECT_NAME":"GAOFEN-6","OBJECT_ID":"2018-048A","EPOCH":"2026-03-07T05:18:17.151840","MEAN_MOTION":14.76591877,"ECCENTRICITY":0.0013051,"INCLINATION":97.7876,"RA_OF_ASC_NODE":132.5888,"ARG_OF_PERICENTER":142.1802,"MEAN_ANOMALY":218.0328,"EPHEMERIS_TYPE":0,"CLASSIFICATION_TYPE":"U","NORAD_CAT_ID":43484,"ELEMENT_SET_NO":999,"REV_AT_EPOCH":41834,"BSTAR":0.00018032,"MEAN_MOTION_DOT":1.211e-5,"MEAN_MOTION_DDOT":0},{"OBJECT_NAME":"GAOFEN-11 01","OBJECT_ID":"2018-063A","EPOCH":"2026-03-07T05:24:14.845248","MEAN_MOTION":15.52160701,"ECCENTRICITY":0.0003974,"INCLINATION":97.1418,"RA_OF_ASC_NODE":133.5593,"ARG_OF_PERICENTER":12.2448,"MEAN_ANOMALY":347.8901,"EPHEMERIS_TYPE":0,"CLASSIFICATION_TYPE":"U","NORAD_CAT_ID":43585,"ELEMENT_SET_NO":999,"REV_AT_EPOCH":42451,"BSTAR":0.00034156,"MEAN_MOTION_DOT":0.00020601,"MEAN_MOTION_DDOT":0},{"OBJECT_NAME":"ICESAT-2","OBJECT_ID":"2018-070A","EPOCH":"2026-03-07T03:19:51.655584","MEAN_MOTION":15.28304785,"ECCENTRICITY":0.000349,"INCLINATION":91.9987,"RA_OF_ASC_NODE":263.4823,"ARG_OF_PERICENTER":128.1417,"MEAN_ANOMALY":232.0147,"EPHEMERIS_TYPE":0,"CLASSIFICATION_TYPE":"U","NORAD_CAT_ID":43613,"ELEMENT_SET_NO":999,"REV_AT_EPOCH":41687,"BSTAR":0.00013312,"MEAN_MOTION_DOT":3.671e-5,"MEAN_MOTION_DDOT":0},{"OBJECT_NAME":"HYSIS","OBJECT_ID":"2018-096A","EPOCH":"2026-03-07T03:57:15.811776","MEAN_MOTION":14.78650625,"ECCENTRICITY":0.0001763,"INCLINATION":97.9945,"RA_OF_ASC_NODE":133.665,"ARG_OF_PERICENTER":101.1233,"MEAN_ANOMALY":259.0176,"EPHEMERIS_TYPE":0,"CLASSIFICATION_TYPE":"U","NORAD_CAT_ID":43719,"ELEMENT_SET_NO":999,"REV_AT_EPOCH":39234,"BSTAR":0.00020519,"MEAN_MOTION_DOT":1.451e-5,"MEAN_MOTION_DDOT":0},{"OBJECT_NAME":"KAZSTSAT","OBJECT_ID":"2018-099AB","EPOCH":"2026-03-07T02:00:05.036832","MEAN_MOTION":14.99612787,"ECCENTRICITY":0.0006853,"INCLINATION":97.4402,"RA_OF_ASC_NODE":102.5897,"ARG_OF_PERICENTER":19.1271,"MEAN_ANOMALY":341.0209,"EPHEMERIS_TYPE":0,"CLASSIFICATION_TYPE":"U","NORAD_CAT_ID":43783,"ELEMENT_SET_NO":999,"REV_AT_EPOCH":39600,"BSTAR":0.00010537,"MEAN_MOTION_DOT":1.242e-5,"MEAN_MOTION_DDOT":0},{"OBJECT_NAME":"SAUDISAT 5A","OBJECT_ID":"2018-102A","EPOCH":"2026-03-07T04:02:09.887136","MEAN_MOTION":15.26891657,"ECCENTRICITY":0.0011226,"INCLINATION":97.3189,"RA_OF_ASC_NODE":129.7346,"ARG_OF_PERICENTER":130.5002,"MEAN_ANOMALY":229.7217,"EPHEMERIS_TYPE":0,"CLASSIFICATION_TYPE":"U","NORAD_CAT_ID":43831,"ELEMENT_SET_NO":999,"REV_AT_EPOCH":40010,"BSTAR":0.00028316,"MEAN_MOTION_DOT":7.421e-5,"MEAN_MOTION_DDOT":0},{"OBJECT_NAME":"SAUDISAT 5B","OBJECT_ID":"2018-102C","EPOCH":"2026-03-07T04:56:37.089312","MEAN_MOTION":15.27204502,"ECCENTRICITY":0.0011917,"INCLINATION":97.3286,"RA_OF_ASC_NODE":132.6594,"ARG_OF_PERICENTER":132.7111,"MEAN_ANOMALY":227.5133,"EPHEMERIS_TYPE":0,"CLASSIFICATION_TYPE":"U","NORAD_CAT_ID":43833,"ELEMENT_SET_NO":999,"REV_AT_EPOCH":40022,"BSTAR":0.00033201,"MEAN_MOTION_DOT":8.8e-5,"MEAN_MOTION_DDOT":0},{"OBJECT_NAME":"GAOFEN-10R","OBJECT_ID":"2019-066A","EPOCH":"2026-03-07T04:51:20.797056","MEAN_MOTION":14.8314355,"ECCENTRICITY":0.0008099,"INCLINATION":98.0398,"RA_OF_ASC_NODE":19.1145,"ARG_OF_PERICENTER":112.9129,"MEAN_ANOMALY":247.294,"EPHEMERIS_TYPE":0,"CLASSIFICATION_TYPE":"U","NORAD_CAT_ID":44622,"ELEMENT_SET_NO":999,"REV_AT_EPOCH":34726,"BSTAR":0.00029888,"MEAN_MOTION_DOT":2.384e-5,"MEAN_MOTION_DDOT":0},{"OBJECT_NAME":"CARTOSAT-3","OBJECT_ID":"2019-081A","EPOCH":"2026-03-07T04:47:58.293600","MEAN_MOTION":15.19146691,"ECCENTRICITY":0.0012868,"INCLINATION":97.4425,"RA_OF_ASC_NODE":129.6449,"ARG_OF_PERICENTER":145.5641,"MEAN_ANOMALY":214.643,"EPHEMERIS_TYPE":0,"CLASSIFICATION_TYPE":"U","NORAD_CAT_ID":44804,"ELEMENT_SET_NO":999,"REV_AT_EPOCH":34798,"BSTAR":0.00021419,"MEAN_MOTION_DOT":4.442e-5,"MEAN_MOTION_DDOT":0},{"OBJECT_NAME":"GAOFEN-12 01","OBJECT_ID":"2019-082A","EPOCH":"2026-03-07T05:19:13.327392","MEAN_MOTION":14.80361278,"ECCENTRICITY":0.0001895,"INCLINATION":97.8143,"RA_OF_ASC_NODE":75.2848,"ARG_OF_PERICENTER":59.7597,"MEAN_ANOMALY":300.3802,"EPHEMERIS_TYPE":0,"CLASSIFICATION_TYPE":"U","NORAD_CAT_ID":44819,"ELEMENT_SET_NO":999,"REV_AT_EPOCH":33900,"BSTAR":8.7506e-5,"MEAN_MOTION_DOT":6.17e-6,"MEAN_MOTION_DDOT":0},{"OBJECT_NAME":"CSG-1","OBJECT_ID":"2019-092A","EPOCH":"2026-03-07T04:16:13.012896","MEAN_MOTION":14.82144396,"ECCENTRICITY":0.0001406,"INCLINATION":97.8865,"RA_OF_ASC_NODE":251.2521,"ARG_OF_PERICENTER":85.9021,"MEAN_ANOMALY":274.2352,"EPHEMERIS_TYPE":0,"CLASSIFICATION_TYPE":"U","NORAD_CAT_ID":44873,"ELEMENT_SET_NO":999,"REV_AT_EPOCH":33636,"BSTAR":0.00011211,"MEAN_MOTION_DOT":8.4e-6,"MEAN_MOTION_DDOT":0},{"OBJECT_NAME":"NEMO-HD","OBJECT_ID":"2020-061F","EPOCH":"2026-03-07T03:42:47.162592","MEAN_MOTION":15.42429804,"ECCENTRICITY":0.000247,"INCLINATION":97.2044,"RA_OF_ASC_NODE":129.2316,"ARG_OF_PERICENTER":81.3765,"MEAN_ANOMALY":278.7762,"EPHEMERIS_TYPE":0,"CLASSIFICATION_TYPE":"U","NORAD_CAT_ID":46277,"ELEMENT_SET_NO":999,"REV_AT_EPOCH":30624,"BSTAR":0.00029039,"MEAN_MOTION_DOT":0.00012478,"MEAN_MOTION_DDOT":0},{"OBJECT_NAME":"SENTINEL-6A","OBJECT_ID":"2020-086A","EPOCH":"2026-03-07T02:50:25.005408","MEAN_MOTION":12.80929628,"ECCENTRICITY":0.0007809,"INCLINATION":66.0447,"RA_OF_ASC_NODE":347.0522,"ARG_OF_PERICENTER":270.8701,"MEAN_ANOMALY":89.142,"EPHEMERIS_TYPE":0,"CLASSIFICATION_TYPE":"U","NORAD_CAT_ID":46984,"ELEMENT_SET_NO":999,"REV_AT_EPOCH":24725,"BSTAR":8.8649e-5,"MEAN_MOTION_DOT":-4.1e-7,"MEAN_MOTION_DDOT":0},{"OBJECT_NAME":"GAOFEN-12 02","OBJECT_ID":"2021-026A","EPOCH":"2026-03-07T05:19:32.325888","MEAN_MOTION":14.80199599,"ECCENTRICITY":0.0004375,"INCLINATION":97.9916,"RA_OF_ASC_NODE":64.8349,"ARG_OF_PERICENTER":188.2138,"MEAN_ANOMALY":171.9003,"EPHEMERIS_TYPE":0,"CLASSIFICATION_TYPE":"U","NORAD_CAT_ID":48079,"ELEMENT_SET_NO":999,"REV_AT_EPOCH":26667,"BSTAR":9.2764e-5,"MEAN_MOTION_DOT":6.52e-6,"MEAN_MOTION_DDOT":0},{"OBJECT_NAME":"PLEIADES NEO 3","OBJECT_ID":"2021-034A","EPOCH":"2026-03-07T05:04:41.558304","MEAN_MOTION":14.8166974,"ECCENTRICITY":0.0001301,"INCLINATION":97.8935,"RA_OF_ASC_NODE":142.4415,"ARG_OF_PERICENTER":90.7689,"MEAN_ANOMALY":269.3673,"EPHEMERIS_TYPE":0,"CLASSIFICATION_TYPE":"U","NORAD_CAT_ID":48268,"ELEMENT_SET_NO":999,"REV_AT_EPOCH":26255,"BSTAR":-0.00023878,"MEAN_MOTION_DOT":-1.93e-5,"MEAN_MOTION_DDOT":0},{"OBJECT_NAME":"PLEIADES NEO 4","OBJECT_ID":"2021-073E","EPOCH":"2026-03-07T04:16:03.033696","MEAN_MOTION":14.8167439,"ECCENTRICITY":0.0001334,"INCLINATION":97.8932,"RA_OF_ASC_NODE":142.4043,"ARG_OF_PERICENTER":92.0423,"MEAN_ANOMALY":268.0943,"EPHEMERIS_TYPE":0,"CLASSIFICATION_TYPE":"U","NORAD_CAT_ID":49070,"ELEMENT_SET_NO":999,"REV_AT_EPOCH":24626,"BSTAR":4.5438e-5,"MEAN_MOTION_DOT":3.06e-6,"MEAN_MOTION_DDOT":0}]
